2024-092F               
1 59778U 24092F   26068.91303411  .00025723  00000+0  79143-3 0  9992
2 59778  97.6418 198.4543 0008646 142.6506 217.5339 15.33614440100535
STARLINK-35129          
1 66077U 25235V   26068.71446018  .00037870  00000+0  12838-2 0  9994
2 66077  53.1573 245.2668 0001127  24.1531 335.9522 15.30211666 22927
