[{"OBJECT_NAME":"OBJECT F","OBJECT_ID":"2024-092F","EPOCH":"2026-03-09T21:54:46.147104","MEAN_MOTION":15.3361444,"ECCENTRICITY":0.00086458,"INCLINATION":97.6418,"RA_OF_ASC_NODE":198.4543,"ARG_OF_PERICENTER":142.6506,"MEAN_ANOMALY":217.5339,"EPHEMERIS_TYPE":0,"CLASSIFICATION_TYPE":"U","NORAD_CAT_ID":59778,"ELEMENT_SET_NO":999,"REV_AT_EPOCH":10053,"BSTAR":0.0007914277,"MEAN_MOTION_DOT":0.00025723,"MEAN_MOTION_DDOT":0},{"OBJECT_NAME":"STARLINK-35129","OBJECT_ID":"2025-235V","EPOCH":"2026-03-09T17:08:49.359552","MEAN_MOTION":15.30211666,"ECCENTRICITY":0.00011276,"INCLINATION":53.1573,"RA_OF_ASC_NODE":245.2668,"ARG_OF_PERICENTER":24.1531,"MEAN_ANOMALY":335.9522,"EPHEMERIS_TYPE":0,"CLASSIFICATION_TYPE":"U","NORAD_CAT_ID":66077,"ELEMENT_SET_NO":999,"REV_AT_EPOCH":2292,"BSTAR":0.0012837578,"MEAN_MOTION_DOT":0.0003787,"MEAN_MOTION_DDOT":0}]
